name,source,collection_date,satellite_number,classification,launch_year,launch_number,launch_piece,epoch_year,epoch_day,inclination_deg,right_ascension_deg,eccentricity,argument_of_perigee_deg,mean_anomaly_deg,mean_motion,orbital_period_minutes,approximate_altitude_km,mean_motion_derivative,mean_motion_second_derivative,drag_term,element_set_number,revolution_number,line1,line2,category
STARLINK-30613,celestrak_active,2025-07-29T17:08:40.695705,58077,U,2023,160,C,2025,210.51206076,43.0021,213.165,0.0001486,296.7378,63.3312,15.02534398,95.83807212112823,0,8.4e-07,0.0,0.0002127,999,9935,1 58077U 23160C   25210.51206076  .00000084  00000+0  21270-4 0  9993,2 58077  43.0021 213.1650 0001486 296.7378  63.3312 15.02534398 99352,important
STARLINK-30597,celestrak_active,2025-07-29T17:08:40.695711,58078,U,2023,160,D,2025,210.45558028,43.0019,213.5844,0.0001143,274.7088,85.3623,15.02528165,95.83846969018381,0,7e-06,0.0,0.00066867,999,9933,1 58078U 23160D   25210.45558028  .00000700  00000+0  66867-4 0  9990,2 58078  43.0019 213.5844 0001143 274.7088  85.3623 15.02528165 99335,important
STARLINK-30598,celestrak_active,2025-07-29T17:08:40.695717,58079,U,2023,160,E,2025,210.50873225,43.0026,213.1385,0.0001336,284.0112,76.0581,15.02533319,95.8381409444139,0,-9.4e-07,0.0,8.098000000000001e-05,999,9931,1 58079U 23160E   25210.50873225 -.00000094  00000+0  80980-5 0  9996,2 58079  43.0026 213.1385 0001336 284.0112  76.0581 15.02533319 99311,important
STARLINK-30603,celestrak_active,2025-07-29T17:08:40.695724,58080,U,2023,160,F,2025,210.50540146,43.0027,213.1142,0.0001338,287.0125,73.0571,15.02534318,95.83807722387077,0,3.03e-06,0.0,0.00037503000000000005,999,9934,1 58080U 23160F   25210.50540146  .00000303  00000+0  37503-4 0  9995,2 58080  43.0027 213.1142 0001338 287.0125  73.0571 15.02534318 99343,important
STARLINK-30602,celestrak_active,2025-07-29T17:08:40.695729,58081,U,2023,160,G,2025,210.47210062,43.0029,212.8517,0.0001596,296.771,63.2969,15.02536293,95.8379512500734,0,-4.29e-06,0.0,-0.00016683,999,9934,1 58081U 23160G   25210.47210062 -.00000429  00000+0 -16683-4 0  9990,2 58081  43.0029 212.8517 0001596 296.7710  63.2969 15.02536293 99347,important
STARLINK-30610,celestrak_active,2025-07-29T17:08:40.695735,58082,U,2023,160,H,2025,210.03672614,43.0055,215.6165,0.0001711,289.1093,70.9564,15.02533058,95.83815759213732,0,1.35e-06,0.0,0.00025047000000000003,999,9927,1 58082U 23160H   25210.03672614  .00000135  00000+0  25047-4 0  9994,2 58082  43.0055 215.6165 0001711 289.1093  70.9564 15.02533058 99270,important
STARLINK-30551,celestrak_active,2025-07-29T17:08:40.695740,58083,U,2023,160,J,2025,210.498742,43.0017,213.0628,0.0001291,283.7015,76.3684,15.02534553,95.83806223456614,0,-2.35e-06,0.0,-2.3422000000000004e-05,999,9934,1 58083U 23160J   25210.49874200 -.00000235  00000+0 -23422-5 0  9999,2 58083  43.0017 213.0628 0001291 283.7015  76.3684 15.02534553 99344,important
STARLINK-30586,celestrak_active,2025-07-29T17:08:40.695745,58084,U,2023,160,K,2025,210.29597877,43.0021,214.1211,0.0001246,287.2339,72.8366,15.02534497,95.8380658064851,0,1.04e-06,0.0,0.00022796,999,9931,1 58084U 23160K   25210.29597877  .00000104  00000+0  22796-4 0  9995,2 58084  43.0021 214.1211 0001246 287.2339  72.8366 15.02534497 99310,important
STARLINK-30609,celestrak_active,2025-07-29T17:08:40.695751,58085,U,2023,160,L,2025,210.49208652,43.0023,213.0123,0.0001621,277.9462,82.1196,15.02535176,95.83802249698546,0,8.85e-06,0.0,0.00080598,999,9934,1 58085U 23160L   25210.49208652  .00000885  00000+0  80598-4 0  9998,2 58085  43.0023 213.0123 0001621 277.9462  82.1196 15.02535176 99346,important
STARLINK-30583,celestrak_active,2025-07-29T17:08:40.695756,58086,U,2023,160,M,2025,210.48874941,43.0021,212.9868,0.0001246,275.6417,84.4284,15.02538334,95.83782106686671,0,2.2e-06,0.0,0.00031338,999,9934,1 58086U 23160M   25210.48874941  .00000220  00000+0  31338-4 0  9999,2 58086  43.0021 212.9868 0001246 275.6417  84.4284 15.02538334 99349,important
STARLINK-30557,celestrak_active,2025-07-29T17:08:40.695762,58087,U,2023,160,N,2025,210.2882117,43.0025,214.0577,0.0001183,272.8635,87.2072,15.02524761,95.83868681416027,0,8.09e-06,0.0,0.0007493500000000001,999,9931,1 58087U 23160N   25210.28821170  .00000809  00000+0  74935-4 0  9997,2 58087  43.0025 214.0577 0001183 272.8635  87.2072 15.02524761 99317,important
STARLINK-30591,celestrak_active,2025-07-29T17:08:40.695767,58088,U,2023,160,P,2025,210.34912884,43.0019,213.6588,0.0001511,283.8691,76.1983,15.02539836,95.83772526347848,0,-3.79e-06,0.0,-0.00012975,999,9932,1 58088U 23160P   25210.34912884 -.00000379  00000+0 -12975-4 0  9998,2 58088  43.0019 213.6588 0001511 283.8691  76.1983 15.02539836 99325,important
STARLINK-30584,celestrak_active,2025-07-29T17:08:40.695773,58089,U,2023,160,Q,2025,210.41230169,43.0025,213.2717,0.0001643,303.1579,56.9105,15.02530039,95.83835015760374,0,1.876e-05,0.0,0.0015394000000000002,999,9933,1 58089U 23160Q   25210.41230169  .00001876  00000+0  15394-3 0  9994,2 58089  43.0025 213.2717 0001643 303.1579  56.9105 15.02530039 99339,important
STARLINK-30590,celestrak_active,2025-07-29T17:08:40.695779,58090,U,2023,160,R,2025,210.28598093,43.0016,214.0453,0.000119,271.046,89.0246,15.02555267,95.8367410255133,0,-7.573e-05,0.0,-0.0054583,999,9931,1 58090U 23160R   25210.28598093 -.00007573  00000+0 -54583-3 0  9999,2 58090  43.0016 214.0453 0001190 271.0460  89.0246 15.02555267 99317,important
STARLINK-30608,celestrak_active,2025-07-29T17:08:40.695784,58091,U,2023,160,S,2025,210.40895187,43.0022,213.2481,0.0001528,285.7347,74.3327,15.02538544,95.83780767224032,0,1.72e-06,0.0,0.00027815,999,9933,1 58091U 23160S   25210.40895187  .00000172  00000+0  27815-4 0  9993,2 58091  43.0022 213.2481 0001528 285.7347  74.3327 15.02538544 99336,important
STARLINK-30615,celestrak_active,2025-07-29T17:08:40.695789,58092,U,2023,160,T,2025,210.40451489,43.0023,213.2083,0.0001363,282.9094,77.1596,15.02533491,95.83812997350353,0,5.88e-06,0.0,0.0005861200000000001,999,9933,1 58092U 23160T   25210.40451489  .00000588  00000+0  58612-4 0  9997,2 58092  43.0023 213.2083 0001363 282.9094  77.1596 15.02533491 99336,important
STARLINK-30578,celestrak_active,2025-07-29T17:08:40.695796,58093,U,2023,160,U,2025,210.31596023,43.0023,214.2591,0.0001304,284.2692,75.8005,15.02524226,95.83872093919902,0,7.71e-06,0.0,0.0007216400000000001,999,9931,1 58093U 23160U   25210.31596023  .00000771  00000+0  72164-4 0  9994,2 58093  43.0023 214.2591 0001304 284.2692  75.8005 15.02524226 99310,important
STARLINK-30574,celestrak_active,2025-07-29T17:08:40.695802,58094,U,2023,160,V,2025,210.40229427,43.0024,213.196,0.0001317,288.7616,71.3083,15.02534648,95.83805617506133,0,1.17e-06,0.0,0.00023704000000000002,999,9933,1 58094U 23160V   25210.40229427  .00000117  00000+0  23704-4 0  9996,2 58094  43.0024 213.1960 0001317 288.7616  71.3083 15.02534648 99337,important
STARLINK-30570,celestrak_active,2025-07-29T17:08:40.695807,58095,U,2023,160,W,2025,210.46543231,43.0029,212.8105,0.0001316,273.5534,86.5158,15.02546063,95.83732808329884,0,9.7e-06,0.0,0.0008684100000000001,999,9934,1 58095U 23160W   25210.46543231  .00000970  00000+0  86841-4 0  9993,2 58095  43.0029 212.8105 0001316 273.5534  86.5158 15.02546063 99346,important
STARLINK-30581,celestrak_active,2025-07-29T17:08:40.695813,58096,U,2023,160,X,2025,210.45889921,43.002,213.6076,0.0001507,290.8113,69.2567,15.02534489,95.83806631675927,0,-3.42e-06,0.0,-0.00010276000000000001,999,9933,1 58096U 23160X   25210.45889921 -.00000342  00000+0 -10276-4 0  9996,2 58096  43.0020 213.6076 0001507 290.8113  69.2567 15.02534489 99331,important
STARLINK-30594,celestrak_active,2025-07-29T17:08:40.695818,58097,U,2023,161,A,2025,210.45400498,53.159,122.4123,0.0001112,82.5674,277.5453,15.30201353,94.10526249874516,0,1.153e-05,0.0,0.00051056,999,10024,1 58097U 23161A   25210.45400498  .00001153  00000+0  51056-4 0  9996,2 58097  53.1590 122.4123 0001112  82.5674 277.5453 15.30201353100249,important
STARLINK-30614,celestrak_active,2025-07-29T17:08:40.695825,58098,U,2023,161,B,2025,210.45084132,53.1596,122.3934,0.0001234,86.0731,274.0411,15.30197103,94.105523868581,0,9.37e-06,0.0,0.00043753000000000005,999,10024,1 58098U 23161B   25210.45084132  .00000937  00000+0  43753-4 0  9994,2 58098  53.1596 122.3934 0001234  86.0731 274.0411 15.30197103100246,important
STARLINK-30607,celestrak_active,2025-07-29T17:08:40.695830,58099,U,2023,161,C,2025,210.45408045,53.1592,112.4174,0.0001253,92.8226,267.2918,15.30207952,94.10485667114087,0,2.082e-05,0.0,0.0008239000000000001,999,10037,1 58099U 23161C   25210.45408045  .00002082  00000+0  82390-4 0  9991,2 58099  53.1592 112.4174 0001253  92.8226 267.2918 15.30207952100378,important
STARLINK-30600,celestrak_active,2025-07-29T17:08:40.695835,58100,U,2023,161,D,2025,210.46033911,53.159,122.4432,9.85e-05,90.1924,269.919,15.30193324,94.1057562737086,0,1.69e-06,0.0,0.00017841000000000002,999,10024,1 58100U 23161D   25210.46033911  .00000169  00000+0  17841-4 0  9994,2 58100  53.1590 122.4432 0000985  90.1924 269.9190 15.30193324100248,important
STARLINK-30605,celestrak_active,2025-07-29T17:08:40.695841,58101,U,2023,161,E,2025,209.98942051,53.1597,124.4908,0.0001207,87.3786,272.7353,15.30197291,94.10551230677875,0,1.17e-06,0.0,0.00016068,999,10017,1 58101U 23161E   25209.98942051  .00000117  00000+0  16068-4 0  9997,2 58101  53.1597 124.4908 0001207  87.3786 272.7353 15.30197291100170,important
STARLINK-30592,celestrak_active,2025-07-29T17:08:40.695846,58102,U,2023,161,F,2025,210.18219304,53.1589,123.5599,0.0001212,77.5774,282.5362,15.30202754,94.1051763392657,0,8.82e-06,0.0,0.00041899,999,10020,1 58102U 23161F   25210.18219304  .00000882  00000+0  41899-4 0  9999,2 58102  53.1589 123.5599 0001212  77.5774 282.5362 15.30202754100206,important
